CCSDS_OMM_VERS = 2.0
CREATION_DATE  = 
ORIGINATOR     = 

OBJECT_NAME    = SL-16 R/B
OBJECT_ID      = 1996-051B
CENTER_NAME    = EARTH
REF_FRAME      = TEME
TIME_SYSTEM    = UTC
MEAN_ELEMENT_THEORY = SGP/SGP4

EPOCH          = 2025-10-26T21:18:06.790176
MEAN_MOTION    = 14.12392528
ECCENTRICITY   = .00169727
INCLINATION    = 70.7579
RA_OF_ASC_NODE = 98.4493
ARG_OF_PERICENTER = 321.7818
MEAN_ANOMALY   = 38.2097

EPHEMERIS_TYPE = 0
CLASSIFICATION_TYPE = U
NORAD_CAT_ID   = 24298
ELEMENT_SET_NO = 999
REV_AT_EPOCH   = 50275
BSTAR          = -.31416621E-4
MEAN_MOTION_DOT = -.107E-5
MEAN_MOTION_DDOT = 0

CCSDS_OMM_VERS = 2.0
CREATION_DATE  = 
ORIGINATOR     = 

OBJECT_NAME    = ORBVIEW 2 (SEASTAR)
OBJECT_ID      = 1997-037A
CENTER_NAME    = EARTH
REF_FRAME      = TEME
TIME_SYSTEM    = UTC
MEAN_ELEMENT_THEORY = SGP/SGP4

EPOCH          = 2025-10-26T22:23:05.359488
MEAN_MOTION    = 14.35363561
ECCENTRICITY   = .00032293
INCLINATION    = 98.8438
RA_OF_ASC_NODE = 95.8374
ARG_OF_PERICENTER = 94.0915
MEAN_ANOMALY   = 266.0639

EPHEMERIS_TYPE = 0
CLASSIFICATION_TYPE = U
NORAD_CAT_ID   = 24883
ELEMENT_SET_NO = 999
REV_AT_EPOCH   = 48928
BSTAR          = .19620468E-3
MEAN_MOTION_DOT = .516E-5
MEAN_MOTION_DDOT = 0

CCSDS_OMM_VERS = 2.0
CREATION_DATE  = 
ORIGINATOR     = 

OBJECT_NAME    = SL-16 R/B
OBJECT_ID      = 1998-043G
CENTER_NAME    = EARTH
REF_FRAME      = TEME
TIME_SYSTEM    = UTC
MEAN_ELEMENT_THEORY = SGP/SGP4

EPOCH          = 2025-10-26T20:35:31.693344
MEAN_MOTION    = 14.26007752
ECCENTRICITY   = .00106763
INCLINATION    = 98.8039
RA_OF_ASC_NODE = 247.4333
ARG_OF_PERICENTER = 46.9022
MEAN_ANOMALY   = 313.3049

EPHEMERIS_TYPE = 0
CLASSIFICATION_TYPE = U
NORAD_CAT_ID   = 25400
ELEMENT_SET_NO = 999
REV_AT_EPOCH   = 41991
BSTAR          = .80886566E-4
MEAN_MOTION_DOT = .148E-5
MEAN_MOTION_DDOT = 0

CCSDS_OMM_VERS = 2.0
CREATION_DATE  = 
ORIGINATOR     = 

OBJECT_NAME    = SL-16 R/B
OBJECT_ID      = 1998-045B
CENTER_NAME    = EARTH
REF_FRAME      = TEME
TIME_SYSTEM    = UTC
MEAN_ELEMENT_THEORY = SGP/SGP4

EPOCH          = 2025-10-26T20:43:39.065376
MEAN_MOTION    = 14.16161923
ECCENTRICITY   = .00092696
INCLINATION    = 71.0085
RA_OF_ASC_NODE = 103.0024
ARG_OF_PERICENTER = 238.2358
MEAN_ANOMALY   = 121.7863

EPHEMERIS_TYPE = 0
CLASSIFICATION_TYPE = U
NORAD_CAT_ID   = 25407
ELEMENT_SET_NO = 999
REV_AT_EPOCH   = 40815
BSTAR          = .95870675E-4
MEAN_MOTION_DOT = .142E-5
MEAN_MOTION_DDOT = 0

CCSDS_OMM_VERS = 2.0
CREATION_DATE  = 
ORIGINATOR     = 

OBJECT_NAME    = ISS (ZARYA)
OBJECT_ID      = 1998-067A
CENTER_NAME    = EARTH
REF_FRAME      = TEME
TIME_SYSTEM    = UTC
MEAN_ELEMENT_THEORY = SGP/SGP4

EPOCH          = 2025-10-26T17:11:32.379072
MEAN_MOTION    = 15.49497961
ECCENTRICITY   = .00046055
INCLINATION    = 51.6344
RA_OF_ASC_NODE = 15.2829
ARG_OF_PERICENTER = 341.7148
MEAN_ANOMALY   = 18.3675

EPHEMERIS_TYPE = 0
CLASSIFICATION_TYPE = U
NORAD_CAT_ID   = 25544
ELEMENT_SET_NO = 999
REV_AT_EPOCH   = 53556
BSTAR          = .28569155E-3
MEAN_MOTION_DOT = .156E-3
MEAN_MOTION_DDOT = 0

CCSDS_OMM_VERS = 2.0
CREATION_DATE  = 
ORIGINATOR     = 

OBJECT_NAME    = CZ-4B R/B
OBJECT_ID      = 1999-025C
CENTER_NAME    = EARTH
REF_FRAME      = TEME
TIME_SYSTEM    = UTC
MEAN_ELEMENT_THEORY = SGP/SGP4

EPOCH          = 2025-10-26T22:13:33.217824
MEAN_MOTION    = 14.18226446
ECCENTRICITY   = .00372795
INCLINATION    = 98.6839
RA_OF_ASC_NODE = 342.2358
ARG_OF_PERICENTER = 11.3304
MEAN_ANOMALY   = 162.1897

EPHEMERIS_TYPE = 0
CLASSIFICATION_TYPE = U
NORAD_CAT_ID   = 25732
ELEMENT_SET_NO = 999
REV_AT_EPOCH   = 36920
BSTAR          = .73908158E-4
MEAN_MOTION_DOT = .11E-5
MEAN_MOTION_DDOT = 0

CCSDS_OMM_VERS = 2.0
CREATION_DATE  = 
ORIGINATOR     = 

OBJECT_NAME    = OKEAN-O
OBJECT_ID      = 1999-039A
CENTER_NAME    = EARTH
REF_FRAME      = TEME
TIME_SYSTEM    = UTC
MEAN_ELEMENT_THEORY = SGP/SGP4

EPOCH          = 2025-10-26T20:56:14.496000
MEAN_MOTION    = 14.80043616
ECCENTRICITY   = .00018365
INCLINATION    = 97.9669
RA_OF_ASC_NODE = 355.9654
ARG_OF_PERICENTER = 79.9331
MEAN_ANOMALY   = 280.2088

EPHEMERIS_TYPE = 0
CLASSIFICATION_TYPE = U
NORAD_CAT_ID   = 25860
ELEMENT_SET_NO = 999
REV_AT_EPOCH   = 41459
BSTAR          = .1471967E-3
MEAN_MOTION_DOT = .1062E-4
MEAN_MOTION_DDOT = 0

CCSDS_OMM_VERS = 2.0
CREATION_DATE  = 
ORIGINATOR     = 

OBJECT_NAME    = SL-16 R/B
OBJECT_ID      = 1999-039B
CENTER_NAME    = EARTH
REF_FRAME      = TEME
TIME_SYSTEM    = UTC
MEAN_ELEMENT_THEORY = SGP/SGP4

EPOCH          = 2025-10-26T21:54:27.549504
MEAN_MOTION    = 14.81486413
ECCENTRICITY   = .00142372
INCLINATION    = 98.0194
RA_OF_ASC_NODE = 354.0456
ARG_OF_PERICENTER = 336.4650
MEAN_ANOMALY   = 23.5909

EPHEMERIS_TYPE = 0
CLASSIFICATION_TYPE = U
NORAD_CAT_ID   = 25861
ELEMENT_SET_NO = 999
REV_AT_EPOCH   = 41705
BSTAR          = .11858044E-3
MEAN_MOTION_DOT = .876E-5
MEAN_MOTION_DDOT = 0

CCSDS_OMM_VERS = 2.0
CREATION_DATE  = 
ORIGINATOR     = 

OBJECT_NAME    = DELTA 2 R/B
OBJECT_ID      = 1999-041E
CENTER_NAME    = EARTH
REF_FRAME      = TEME
TIME_SYSTEM    = UTC
MEAN_ELEMENT_THEORY = SGP/SGP4

EPOCH          = 2025-10-26T21:40:32.894400
MEAN_MOTION    = 14.11243646
ECCENTRICITY   = .05045125
INCLINATION    = 51.7630
RA_OF_ASC_NODE = 115.3761
ARG_OF_PERICENTER = 313.7189
MEAN_ANOMALY   = 42.2982

EPHEMERIS_TYPE = 0
CLASSIFICATION_TYPE = U
NORAD_CAT_ID   = 25876
ELEMENT_SET_NO = 999
REV_AT_EPOCH   = 34413
BSTAR          = .2004943E-3
MEAN_MOTION_DOT = .1005E-4
MEAN_MOTION_DDOT = 0

CCSDS_OMM_VERS = 2.0
CREATION_DATE  = 
ORIGINATOR     = 

OBJECT_NAME    = HELIOS 1B
OBJECT_ID      = 1999-064A
CENTER_NAME    = EARTH
REF_FRAME      = TEME
TIME_SYSTEM    = UTC
MEAN_ELEMENT_THEORY = SGP/SGP4

EPOCH          = 2025-10-26T23:22:06.955968
MEAN_MOTION    = 14.86995868
ECCENTRICITY   = .00022959
INCLINATION    = 98.1756
RA_OF_ASC_NODE = 193.2609
ARG_OF_PERICENTER = 106.4126
MEAN_ANOMALY   = 253.7341

EPHEMERIS_TYPE = 0
CLASSIFICATION_TYPE = U
NORAD_CAT_ID   = 25977
ELEMENT_SET_NO = 999
REV_AT_EPOCH   = 66538
BSTAR          = .30710942E-3
MEAN_MOTION_DOT = .2692E-4
MEAN_MOTION_DDOT = 0

CCSDS_OMM_VERS = 2.0
CREATION_DATE  = 
ORIGINATOR     = 

OBJECT_NAME    = TERRA
OBJECT_ID      = 1999-068A
CENTER_NAME    = EARTH
REF_FRAME      = TEME
TIME_SYSTEM    = UTC
MEAN_ELEMENT_THEORY = SGP/SGP4

EPOCH          = 2025-10-26T23:05:29.004000
MEAN_MOTION    = 14.60871254
ECCENTRICITY   = .00011909
INCLINATION    = 97.9817
RA_OF_ASC_NODE = 353.3455
ARG_OF_PERICENTER = 218.3819
MEAN_ANOMALY   = 243.2470

EPHEMERIS_TYPE = 0
CLASSIFICATION_TYPE = U
NORAD_CAT_ID   = 25994
ELEMENT_SET_NO = 999
REV_AT_EPOCH   = 37555
BSTAR          = .15790719E-3
MEAN_MOTION_DOT = .728E-5
MEAN_MOTION_DDOT = 0

CCSDS_OMM_VERS = 2.0
CREATION_DATE  = 
ORIGINATOR     = 

OBJECT_NAME    = SL-16 R/B
OBJECT_ID      = 2000-006B
CENTER_NAME    = EARTH
REF_FRAME      = TEME
TIME_SYSTEM    = UTC
MEAN_ELEMENT_THEORY = SGP/SGP4

EPOCH          = 2025-10-26T21:57:41.580576
MEAN_MOTION    = 14.15794416
ECCENTRICITY   = .00157447
INCLINATION    = 71.0044
RA_OF_ASC_NODE = 19.1122
ARG_OF_PERICENTER = 17.7317
MEAN_ANOMALY   = 342.4352

EPHEMERIS_TYPE = 0
CLASSIFICATION_TYPE = U
NORAD_CAT_ID   = 26070
ELEMENT_SET_NO = 999
REV_AT_EPOCH   = 32962
BSTAR          = .12072263E-3
MEAN_MOTION_DOT = .19E-5
MEAN_MOTION_DDOT = 0

