SL-16 R/B               
1 24298U 96051B   25299.88757859 -.00000107  00000+0 -31417-4 0  9999
2 24298  70.7579  98.4493 0016972 321.7818  38.2097 14.12392528502759
ORBVIEW 2 (SEASTAR)     
1 24883U 97037A   25299.93270092  .00000516  00000+0  19620-3 0  9992
2 24883  98.8438  95.8374 0003229  94.0915 266.0639 14.35363561489287
SL-16 R/B               
1 25400U 98043G   25299.85800571  .00000148  00000+0  80887-4 0  9993
2 25400  98.8039 247.4333 0010676  46.9022 313.3049 14.26007752419910
SL-16 R/B               
1 25407U 98045B   25299.86364659  .00000142  00000+0  95871-4 0  9998
2 25407  71.0085 103.0024 0009269 238.2358 121.7863 14.16161923408158
ISS (ZARYA)             
1 25544U 98067A   25299.71634698  .00015600  00000+0  28569-3 0  9995
2 25544  51.6344  15.2829 0004605 341.7148  18.3675 15.49497961535564
CZ-4B R/B               
1 25732U 99025C   25299.92607891  .00000110  00000+0  73908-4 0  9995
2 25732  98.6839 342.2358 0037279  11.3304 162.1897 14.18226446369203
OKEAN-O                 
1 25860U 99039A   25299.87239000  .00001062  00000+0  14720-3 0  9992
2 25860  97.9669 355.9654 0001836  79.9331 280.2088 14.80043616414590
SL-16 R/B               
1 25861U 99039B   25299.91281886  .00000876  00000+0  11858-3 0  9998
2 25861  98.0194 354.0456 0014237 336.4650  23.5909 14.81486413417051
DELTA 2 R/B             
1 25876U 99041E   25299.90315850  .00001005  00000+0  20049-3 0  9992
2 25876  51.7630 115.3761 0504512 313.7189  42.2982 14.11243646344139
HELIOS 1B               
1 25977U 99064A   25299.97369162  .00002692  00000+0  30711-3 0  9991
2 25977  98.1756 193.2609 0002295 106.4126 253.7341 14.86995868665383
TERRA                   
1 25994U 99068A   25299.96214125  .00000728  00000+0  15791-3 0  9990
2 25994  97.9817 353.3455 0001190 218.3819 243.2470 14.60871254375558
SL-16 R/B               
1 26070U 00006B   25299.91506459  .00000190  00000+0  12072-3 0  9991
2 26070  71.0044  19.1122 0015744  17.7317 342.4352 14.15794416329623
